STARLETTE               
1 07646U 75010A   26060.44776390 -.00000155  00000+0 -73280-5 0  9997
2 07646  49.8226 169.8637 0205552  67.1179 295.1272 13.82349048579636
LAGEOS 1                
1 08820U 76039A   26060.19132064 -.00000006  00000+0  00000+0 0  9998
2 08820 109.8192 142.3718 0044657 325.4079  52.7204  6.38664858906247
AJISAI (EGS)            
1 16908U 86061A   26060.51481683 -.00000082  00000+0  10762-3 0  9994
2 16908  50.0081 118.4862 0011242 265.9474 121.3863 12.44515501466982
COSMOS 1989 (ETALON 1)  
1 19751U 89001C   26060.27984373  .00000037  00000+0  00000+0 0  9996
2 19751  64.8821  75.8848 0023402 217.5804 103.7113  2.13155985289062
COSMOS 2024 (ETALON 2)  
1 20026U 89039C   26060.29230764 -.00000038  00000+0  00000+0 0  9996
2 20026  64.9995 314.2549 0020467 213.4380 256.3154  2.13204480286200
LAGEOS 2                
1 22195U 92070B   26060.20641904 -.00000009  00000+0  00000+0 0  9995
2 22195  52.6803 334.9019 0137791 140.1165 279.2006  6.47293304788434
STELLA                  
1 22824U 93061B   26060.47101463 -.00000022  00000+0  93864-5 0  9996
2 22824  98.7861 124.2760 0006285 180.8698 308.0391 14.27467203689409
LARETS                  
1 27944U 03042F   26060.45940226  .00000108  00000+0  30378-4 0  9994
2 27944  98.4000 220.4794 0012595  18.0327 342.1319 14.63846019197608
LARES                   
1 38077U 12006A   26060.45438443 -.00000025  00000+0  83651-4 0  9997
2 38077  69.4895 116.2670 0007668 159.2082 200.9257 12.54932164643550
LARES-2                 
1 53105U 22080A   26051.71998157 -.00000019  00000+0  00000+0 0  9996
2 53105  70.1780 345.2672 0005158   0.9590 359.1035  6.38965205 84226
